NOAA 2 (ITOS-D)
1 06235U 72082A   25056.94363481 -.00000010  00000-0  22763-3 0  9996
2 06235 102.0249  64.9106 0003970   2.0556  63.1814 12.53196196395293
SOLRAD-7B
1 01291U 65016D   25056.76425607  .00000091  00000-0  10619-3 0  9996
2 01291  70.0797 169.0882 0019835  19.3850 340.8006 13.94887315 50264
OSCAR-7 (AO-7)
1 07530U 74089B   25056.90752494 -.00000017  00000-0  18500-3 0  9997
2 07530 101.9944  60.0644 0012011 321.0470  98.5216 12.53686613300833
UOSAT-2 (UO-11)
1 14781U 84021B   25056.85331645  .00004825  00000-0  52123-3 0  9994
2 14781  97.7410  25.3917 0006855 331.4894  28.5947 14.88778735186204
FLTSATCOM-7 (USA-20)
1 17181U 86096A   25055.82279652  .00000059  00000-0  00000-0 0  9999
2 17181  13.0897 343.1106 0042061 319.1354 208.8504  0.98926013147248
FLTSATCOM-8 (USA-46)
1 20253U 89077A   25056.69697659 -.00000359  00000-0  00000+0 0  9995
2 20253  12.5565 354.0181 0007352 332.3924 206.0906  1.00268586255824
OSCAR 16 (PACSAT)
1 20439U 90005D   25056.97469259  .00000496  00000-0  19541-3 0  9993
2 20439  98.8969  75.2322 0010570 182.7889 235.2193 14.33692621833697
LUSAT (LO-19)
1 20442U 90005G   25056.90530648  .00000517  00000-0  20239-3 0  9991
2 20442  98.8994  60.1267 0012038 157.5606 202.6106 14.33872053834139
UFO 2 (USA 95)
1 22787U 93056A   25057.04697553  .00000131  00000-0  00000+0 0  9991
2 22787  11.7344   6.0737 0003738 350.3742 205.2421  1.00269994113883
EYESAT-1 (AO-27)
1 22825U 93061C   25057.13796883  .00000345  00000-0  14914-3 0  9996
2 22825  98.7516 118.1155 0009285  60.4210 299.7897 14.30737047639191
ITAMSAT (IO-26) 
1 22826U 93061D   25056.69701534  .00000384  00000-0  16274-3 0  9990
2 22826  98.7464 117.5474 0009618  47.0994 313.0995 14.31143216639156
UFO 3 (USA 104)
1 23132U 94035A   25056.00226844  .00000133  00000-0  00000-0 0  9993
2 23132  12.1553   8.5014 0004146 282.9627 265.2651  1.00175061126916
RADIO ROSTO (RS-15)
1 23439U 94085A   25056.94352479 -.00000041  00000-0  39538-4 0  9996
2 23439  64.8217 353.4025 0145506  94.5623 267.1937 11.27580022242206
UFO 4 (USA 108)
1 23467U 95003A   25056.61850373 -.00000018  00000-0  00000-0 0  9990
2 23467   9.6778  14.7115 0002327 299.5645 236.1978  1.00273194110177
UFO 7 (USA 127)
1 23967U 96042A   25056.22683774 -.00000260  00000-0  00000-0 0  9994
2 23967  10.6595  19.5020 0004341  96.9545  82.0108  1.00319551104708
JAS-2 (FO-29)
1 24278U 96046B   25057.16755556  .00000022  00000-0  61164-4 0  9993
2 24278  98.5864 324.6209 0348928 250.4333 105.8825 13.53238626409039
UFO 8 (USA 138)
1 25258U 98016A   25056.05279784  .00000097  00000-0  00000-0 0  9992
2 25258  10.5517  25.4532 0007702 251.9822 304.9689  1.00384511 99076
TECHSAT-1B (GO-32)
1 25397U 98043D   25057.21409888  .00000355  00000-0  17399-3 0  9994
2 25397  98.9594  34.2379 0002059 120.7290 239.4091 14.24261457383791
ISS (ZARYA)
1 25544U 98067A   25057.23680487  .00026685  00000-0  48254-3 0  9990
2 25544  51.6375 136.5555 0006009 318.1256 136.8866 15.49475785497957
UFO 10 (USA 146)
1 25967U 99063A   25056.25301250 -.00000182  00000-0  00000-0 0  9994
2 25967   9.6329  29.5694 0005312 270.2518 283.7250  1.00273205 92560
PCSAT (NO-44)
1 26931U 01043C   25056.62698377  .00000683  00000-0  28722-3 0  9996
2 26931  67.0512  36.5931 0005908 265.1934  94.8493 14.31632644222224
PROBA-1
1 26958U 01049B   25057.09797324  .00006807  00000-0  47607-3 0  9992
2 26958  97.9423  45.4618 0056711 290.5227  68.9917 15.04327191272027
SAUDISAT-1C (SO-50)
1 27607U 02058C   25056.59060673  .00003746  00000-0  49221-3 0  9992
2 27607  64.5550 161.4018 0044064 359.8428   0.2655 14.81025771193824
CUTE-1 (CO-55)
1 27844U 03031E   25056.96458517  .00001001  00000-0  45634-3 0  9992
2 27844  98.6793  66.5679 0010630 124.7996 235.4184 14.23840799123893
CUBESAT XI-IV (CO-57)
1 27848U 03031J   25057.00584488  .00000845  00000-0  39310-3 0  9998
2 27848  98.6821  66.6910 0010322 140.1333 220.0605 14.23198335123680
MOZHAYETS-4 (RS-22)
1 27939U 03042A   25057.15357858  .00003682  00000-0  59666-3 0  9994
2 27939  98.3150 224.1922 0011208 342.2080  77.2868 14.71832782145619
UFO 11 (USA 174)
1 28117U 03057A   25056.88740392 -.00000099  00000-0  00000+0 0  9991
2 28117   8.4712  35.9037 0003662 283.3081 231.6584  1.00273241 77645
CUBESAT XI-V (CO-58)
1 28895U 05043F   25056.35689582  .00005551  00000-0  92706-3 0  9991
2 28895  98.2301 199.5537 0013922 277.2123  82.7500 14.70256944 31623
CAPE-1
1 31130U 07012P   25056.84064441  .00004330  00000-0  81443-3 0  9990
2 31130  98.3850  16.0992 0088033 116.7281 244.2963 14.62664619948655
CUTE-1.7+APD II (CO-65)
1 32785U 08021C   25056.85750101  .00013394  00000-0  10118-2 0  9994
2 32785  97.7739  27.4528 0009827 194.4519 165.6426 15.02473838913493
SEEDS-II (CO-66)
1 32791U 08021J   25056.87421562  .00025822  00000-0  14035-2 0  9990
2 32791  97.7193  34.9497 0005868 137.2819 222.8869 15.14457629914852
YUBILEINY (RS-30)
1 32953U 08025A   25057.14704340  .00000045  00000-0  25277-3 0  9994
2 32953  82.5012 291.5272 0018695 272.2458  87.6482 12.43159345760677
PRISM (HITOMI)
1 33493U 09002B   25056.72902758  .00211437  00000-0  27449-2 0  9997
2 33493  98.1587 137.5578 0002183  84.4437 275.7065 15.58096006877905
KKS-1 (KISEKI)
1 33499U 09002H   25056.84008928  .00004615  00000-0  60243-3 0  9990
2 33499  98.1259 327.5159 0009265  40.5125 319.6775 14.80983189866060
SWISSCUBE
1 35932U 09051B   25057.15706394  .00003326  00000-0  69010-3 0  9994
2 35932  98.4429 311.4217 0005707 251.2588 108.7993 14.60850306819658
BEESAT
1 35933U 09051C   25056.95501915  .00002862  00000-0  60194-3 0  9992
2 35933  98.4360 311.7496 0004094 268.2485  91.8245 14.60335442819647
ITUPSAT-1
1 35935U 09051E   25056.68182833  .00002676  00000-0  57807-3 0  9998
2 35935  98.4455 311.0948 0006371 278.4084  81.6393 14.59165482819214
PROBA-2
1 36037U 09059B   25057.11098936  .00000882  00000-0  21772-3 0  9998
2 36037  98.2348 242.4220 0012381 314.5185  45.5000 14.54434000812407
XIWANG-1 (HOPE-1)
1 36122U 09072B   25056.80202208 -.00000027  00000-0  44397-4 0  9993
2 36122 100.3352  14.8323 0006915 241.0551 118.9869 13.16419792730320
EWS-G2 (GOES-15)
1 36411U 10008A   25057.00292682  .00000039  00000-0  00000+0 0  9993
2 36411   0.0472  98.3580 0003799 183.3462 296.8035  1.00269690 54856
TISAT-1
1 36799U 10035E   25057.02260493  .00024181  00000-0  13857-2 0  9990
2 36799  98.0662 324.8934 0005676  90.7295 269.4584 15.12583614795494
HORYU-2
1 38340U 12025D   25056.88469422  .00008835  00000-0  10103-2 0  9990
2 38340  98.1677 168.5947 0008389 297.4183  62.6178 14.86232426677851
AAUSAT-3
1 39087U 13009B   25057.10992830  .00002355  00000-0  77773-3 0  9990
2 39087  98.3660 247.1574 0011424 197.5571 162.5224 14.38908228629002
STRAND-1
1 39090U 13009E   25056.77022486  .00001028  00000-0  36337-3 0  9994
2 39090  98.3805 244.1935 0008230 209.0594 151.0136 14.36659652628646
CUBEBUG-1 (CAPITAN BETO)
1 39153U 13018D   25057.09724471  .00009885  00000-0  97376-3 0  9992
2 39153  98.1001 194.3797 0012575 279.9880  79.9919 14.92205590640017
PROBA-V
1 39159U 13021A   25056.98688733  .00000275  00000-0  13914-3 0  9999
2 39159  98.3172  55.4656 0005412  88.5551 271.6249 14.23439672613365
ZACUBE-1 (TSHEPISOSAT)
1 39417U 13066B   25056.83969019  .00013701  00000-0  12354-2 0  9992
2 39417  97.7682  14.5996 0047323  40.7835 319.6911 14.94800711609409
TRITON-1
1 39427U 13066M   25056.93292537  .00008909  00000-0  11506-2 0  9990
2 39427  97.8409 333.3875 0095962 343.7654  16.0488 14.77960787603641
DELFI-N3XT
1 39428U 13066N   25056.75559090  .00020570  00000-0  22009-2 0  9999
2 39428  97.8373 335.7305 0088367 343.4146  16.4182 14.85875281603648
GOMX-1
1 39430U 13066Q   25056.90308309  .00005419  00000-0  85388-3 0  9999
2 39430  97.6987 281.8840 0134328 163.5507 197.0122 14.66907874600208
HUMSAT-D
1 39433U 13066T   25056.92173721  .00047491  00000-0  18219-2 0  9996
2 39433  97.5019  51.5691 0016501 119.2058 241.0833 15.26201765613210
VELOX-PII
1 39438U 13066Y   25057.11077938  .00007802  00000-0  81649-3 0  9996
2 39438  97.8184   6.2135 0059454 116.1113 244.6238 14.88576084608020
CUBEBUG-2 (LO-74)
1 39440U 13066AA  25056.80521442  .00009507  00000-0  99381-3 0  9994
2 39440  97.8397   2.2572 0064578 160.4450 199.9265 14.88324999605990
FUNCUBE-1 (AO-73)
1 39444U 13066AE  25056.83337824  .00020102  00000-0  16044-2 0  9998
2 39444  97.7518  18.6934 0042552  18.8461 341.4326 14.99593443608020
UWE-3
1 39446U 13066AG  25056.80255339  .00011297  00000-0  11069-2 0  9994
2 39446  97.8123   8.4862 0057127 102.6810 258.0803 14.91189081606433
UNISAT-6
1 40012U 14033C   25056.89561941  .00009575  00000-0  11330-2 0  9995
2 40012  97.7258 216.1347 0048847 194.6082 165.3724 14.83941072575411
DUCHIFAT-1
1 40021U 14033M   25056.96242411  .00038113  00000-0  16670-2 0  9993
2 40021  98.1013  62.7567 0007919 328.3068  31.7688 15.21938391582527
FUNCUBE-3 (EO-79)
1 40025U 14033R   25056.92104146  .00018665  00000-0  12248-2 0  9992
2 40025  98.0745  34.0016 0013231  54.9965 305.2501 15.07642679581005
SMAP
1 40376U 15003A   25056.97699307  .00001679  00000-0  33377-3 0  9996
2 40376  98.1305  65.7764 0001408  78.3104 281.8256 14.63398110537978
XW-2C
1 40906U 15049H   25047.62605869  .06460715  25777-5  82494-3 0  9990
2 40906  97.4284  83.7622 0006300 238.5188 121.5494 16.35922890522636
LILACSAT-2
1 40908U 15049K   25057.18139323  .00021924  00000-0  63968-3 0  9992
2 40908  97.5155  75.2268 0010746 160.3802 199.7856 15.35303486522342
LAPAN-A2 (IO-86)
1 40931U 15052B   25038.81889873  .00001817  00000-0  15548-3 0  9993
2 40931   6.0001 108.1159 0012838 187.7041 172.2889 14.78568669506492
LQSAT
1 40958U 15057A   25057.13983293  .00001955  00000-0  29168-3 0  9990
2 40958  97.6592  69.9301 0017869  22.6119 337.5875 14.75771982505050
PRATHAM
1 41783U 16059A   25056.92079768  .00002394  00000-0  44169-3 0  9995
2 41783  97.8278  70.3954 0030470 295.9409  63.8656 14.66075745449709
